NORAD_CAT_ID,OBJECT_NAME,OBJECT_TYPE,EPOCH,MEAN_MOTION,ECCENTRICITY,INCLINATION,RA_OF_ASC_NODE,ARG_OF_PERICENTER,MEAN_ANOMALY,BSTAR,MEAN_MOTION_DOT,MEAN_MOTION_DDOT,TLE_LINE0,TLE_LINE1,TLE_LINE2,SEMIMAJOR_AXIS,PERIOD,APOGEE,PERIGEE,DECAYED
52637.0,STARLINK-3961,PAYLOAD,2023-02-24 08:29:08,15.08830719,0.0001102,53.215,199.1242,99.475,260.6367,-7.1521e-06,-4.02e-06,0.0,0 STARLINK-3961,1 52637U 22052AR  23055.35356888 -.00000402  00000-0 -71521-5 0  9994,2 52637  53.2150 199.1242 0001102  99.4750 260.6367 15.08830719 44030,6917.909,95.438,540.536,539.011,0.0
52637.0,STARLINK-3961,PAYLOAD,2023-02-24 11:39:54,15.08829941,0.0001101,53.215,198.5297,96.5711,263.5407,3.3458e-05,2.45e-06,0.0,0 STARLINK-3961,1 52637U 22052AR  23055.48604890  .00000245  00000-0  33458-4 0  9996,2 52637  53.2150 198.5297 0001101  96.5711 263.5407 15.08829941 44488,6917.911,95.438,540.538,539.014,0.0
52637.0,STARLINK-3961,PAYLOAD,2023-02-24 16:26:03,15.08837012,0.0001086,53.2154,197.6381,98.0599,262.0516,8.8225e-05,1.116e-05,0.0,0 STARLINK-3961,1 52637U 22052AR  23055.68476336  .00001116  00000-0  88225-4 0  9990,2 52637  53.2154 197.6381 0001086  98.0599 262.0516 15.08837012 44088,6917.89,95.438,540.506,539.003,0.0
52637.0,STARLINK-3961,PAYLOAD,2023-02-25 05:09:09,15.0883026,9.22e-05,53.2156,195.2597,97.6344,262.4753,4.5102e-05,4.3e-06,0.0,0 STARLINK-3961,1 52637U 22052AR  23056.21469055  .00000430  00000-0  45102-4 0  9995,2 52637  53.2156 195.2597 0000922  97.6344 262.4753 15.08830260 44168,6917.91,95.438,540.413,539.137,0.0
52637.0,STARLINK-3961,PAYLOAD,2023-02-25 13:06:05,15.08825944,9.2e-05,53.2154,193.7724,96.1241,263.9856,5.5046e-06,-2e-06,0.0,0 STARLINK-3961,1 52637U 22052AR  23056.54589679 -.00000200  00000-0  55046-5 0  9991,2 52637  53.2154 193.7724 0000920  96.1241 263.9856 15.08825944 44645,6917.923,95.438,540.425,539.152,0.0
52637.0,STARLINK-3961,PAYLOAD,2023-02-25 16:16:51,15.08830384,8.33e-05,53.2156,193.1769,94.7515,265.3572,3.4042e-05,2.54e-06,0.0,0 STARLINK-3961,1 52637U 22052AR  23056.67837392  .00000254  00000-0  34042-4 0  9993,2 52637  53.2156 193.1769 0000833  94.7515 265.3572 15.08830384 44668,6917.91,95.438,540.351,539.199,0.0
52637.0,STARLINK-3961,PAYLOAD,2023-02-26 01:49:09,15.08842383,8.6e-05,53.2159,191.3922,87.262,272.847,0.00010242,1.343e-05,0.0,0 STARLINK-3961,1 52637U 22052AR  23057.07580510  .00001343  00000-0  10242-3 0  9990,2 52637  53.2159 191.3922 0000860  87.2620 272.8470 15.08842383 44297,6917.873,95.437,540.333,539.143,0.0
52637.0,STARLINK-3961,PAYLOAD,2023-02-26 08:10:41,15.08849922,2.28e-05,53.2156,190.204,146.8528,213.2478,0.00022986,3.374e-05,0.0,0 STARLINK-3961,1 52637U 22052AR  23057.34075345  .00003374  00000-0  22986-3 0  9999,2 52637  53.2156 190.2040 0000228 146.8528 213.2478 15.08849922 44338,6917.85,95.437,539.873,539.557,0.0
52637.0,STARLINK-3961,PAYLOAD,2023-02-26 11:21:26,15.08867189,0.0001007,53.2151,189.6089,86.9937,273.117,0.00036522,5.534e-05,0.0,0 STARLINK-3961,1 52637U 22052AR  23057.47321975  .00005534  00000-0  36522-3 0  9997,2 52637  53.2151 189.6089 0001007  86.9937 273.1170 15.08867189 44780,6917.797,95.436,540.359,538.966,0.0
52637.0,STARLINK-3961,PAYLOAD,2023-02-26 14:32:15,15.08831677,0.0001706,53.2167,189.016,47.3028,312.8108,1.3768e-05,-6.9e-07,0.0,0 STARLINK-3961,1 52637U 22052AR  23057.60573348 -.00000069  00000-0  13768-4 0  9992,2 52637  53.2167 189.0160 0001706  47.3028 312.8108 15.08831677 44379,6917.906,95.438,540.951,538.591,0.0
52637.0,STARLINK-3961,PAYLOAD,2023-02-26 16:07:38,15.08826905,0.000117,53.2159,188.7168,65.5796,294.5319,-2.7639e-05,-7.27e-06,0.0,0 STARLINK-3961,1 52637U 22052AR  23057.67197625 -.00000727  00000-0 -27639-4 0  9993,2 52637  53.2159 188.7168 0001170  65.5796 294.5319 15.08826905 44810,6917.92,95.438,540.595,538.976,0.0
52637.0,STARLINK-3961,PAYLOAD,2023-02-27 01:39:57,15.08828874,0.0001112,53.2159,186.9318,74.226,285.8854,-2.5631e-05,-6.96e-06,0.0,0 STARLINK-3961,1 52637U 22052AR  23058.06941636 -.00000696  00000-0 -25631-4 0  9991,2 52637  53.2159 186.9318 0001112  74.2260 285.8854 15.08828874 44876,6917.914,95.438,540.549,539.01,0.0
52637.0,STARLINK-3961,PAYLOAD,2023-02-27 12:47:38,15.08843638,0.0001156,53.2162,184.8508,67.9148,292.1967,0.00018405,2.643e-05,0.0,0 STARLINK-3961,1 52637U 22052AR  23058.53308453  .00002643  00000-0  18405-3 0  9999,2 52637  53.2162 184.8508 0001156  67.9148 292.1967 15.08843638 44512,6917.869,95.437,540.534,538.935,0.0
52637.0,STARLINK-3961,PAYLOAD,2023-02-27 14:23:00,15.08855645,0.00014,53.2162,184.5524,58.9768,301.1361,0.00029507,4.413e-05,0.0,0 STARLINK-3961,1 52637U 22052AR  23058.59931519  .00004413  00000-0  29507-3 0  9992,2 52637  53.2162 184.5524 0001400  58.9768 301.1361 15.08855645 44955,6917.833,95.437,540.666,538.729,0.0
52637.0,STARLINK-3961,PAYLOAD,2023-02-28 11:03:02,15.0883695,0.0001425,53.2141,180.6883,82.7907,277.3247,-0.00031185,-5.247e-05,0.0,0 STARLINK-3961,1 52637U 22052AR  23059.46044565 -.00005247  00000-0 -31185-3 0  9998,2 52637  53.2141 180.6883 0001425  82.7907 277.3247 15.08836950 44656,6917.89,95.438,540.741,538.769,0.0
52637.0,STARLINK-3961,PAYLOAD,2023-02-28 12:38:25,15.08836526,0.0001276,53.2154,180.3907,79.5907,280.5229,-0.00034109,-5.712e-05,0.0,0 STARLINK-3961,1 52637U 22052AR  23059.52668545 -.00005712  00000-0 -34109-3 0  9991,2 52637  53.2154 180.3907 0001276  79.5907 280.5229 15.08836526 45096,6917.891,95.438,540.639,538.873,0.0
52637.0,STARLINK-3961,PAYLOAD,2023-02-28 14:13:48,15.08845598,0.0001543,53.2147,180.0932,65.9401,294.1752,-0.00015908,-2.819e-05,0.0,0 STARLINK-3961,1 52637U 22052AR  23059.59292208 -.00002819  00000-0 -15908-3 0  9998,2 52637  53.2147 180.0932 0001543  65.9401 294.1752 15.08845598 45101,6917.863,95.437,540.796,538.661,0.0
52637.0,STARLINK-3961,PAYLOAD,2023-03-01 01:21:31,15.08827012,0.0001374,53.2149,178.0138,78.1016,282.013,2.7645e-05,1.52e-06,0.0,0 STARLINK-3961,1 52637U 22052AR  23060.05661463  .00000152  00000-0  27645-4 0  9992,2 52637  53.2149 178.0138 0001374  78.1016 282.0130 15.08827012 44744,6917.92,95.438,540.736,538.835,0.0
52637.0,STARLINK-3961,PAYLOAD,2023-03-01 07:43:04,15.08820194,0.0001562,53.2161,176.8216,95.8513,264.2657,-0.00016417,-2.898e-05,0.0,0 STARLINK-3961,1 52637U 22052AR  23060.32158152 -.00002898  00000-0 -16417-3 0  9993,2 52637  53.2161 176.8216 0001562  95.8513 264.2657 15.08820194 44782,6917.941,95.439,540.887,538.725,0.0
52637.0,STARLINK-3961,PAYLOAD,2023-03-01 14:04:37,15.08816125,0.000114,53.2139,175.6349,92.8469,267.2654,-0.00017286,-3.036e-05,0.0,0 STARLINK-3961,1 52637U 22052AR  23060.58654622 -.00003036  00000-0 -17286-3 0  9994,2 52637  53.2139 175.6349 0001140  92.8469 267.2654 15.08816125 45252,6917.953,95.439,540.607,539.03,0.0
52637.0,STARLINK-3961,PAYLOAD,2023-03-02 02:47:42,15.08828929,0.0001387,53.2155,173.2506,122.7509,237.3617,7.7004e-05,9.37e-06,0.0,0 STARLINK-3961,1 52637U 22052AR  23061.11646414  .00000937  00000-0  77004-4 0  9994,2 52637  53.2155 173.2506 0001387 122.7509 237.3617 15.08828929 44903,6917.914,95.438,540.739,538.82,0.0
52637.0,STARLINK-3961,PAYLOAD,2023-03-02 13:55:24,15.08863313,0.0001269,53.2142,171.1711,110.8143,249.2985,0.0015207,0.00024012,0.0,0 STARLINK-3961,1 52637U 22052AR  23061.58014455  .00024012  00000-0  15207-2 0  9994,2 52637  53.2142 171.1711 0001269 110.8143 249.2985 15.08863313 44978,6917.809,95.436,540.552,538.796,0.0
52637.0,STARLINK-3961,PAYLOAD,2023-03-03 07:24:38,15.08867226,0.0001096,53.2146,167.9007,100.2129,259.8986,0.0011008,0.00017288,0.0,0 STARLINK-3961,1 52637U 22052AR  23062.30877506  .00017288  00000-0  11008-2 0  9991,2 52637  53.2146 167.9007 0001096 100.2129 259.8986 15.08867226 45086,6917.797,95.436,540.42,538.904,0.0
52637.0,STARLINK-3961,PAYLOAD,2023-03-03 10:35:24,15.08872957,0.0001287,53.2147,167.3059,113.0941,247.0187,0.0016741,0.0002648,0.0,0 STARLINK-3961,1 52637U 22052AR  23062.44125281  .00026480  00000-0  16741-2 0  9995,2 52637  53.2147 167.3059 0001287 113.0941 247.0187 15.08872957 45533,6917.78,95.435,540.535,538.754,0.0
52637.0,STARLINK-3961,PAYLOAD,2023-03-03 12:10:47,15.08877411,0.000123,53.2147,167.0087,109.5329,250.5796,0.0021682,0.00034423,0.0,0 STARLINK-3961,1 52637U 22052AR  23062.50749172  .00034423  00000-0  21682-2 0  9999,2 52637  53.2147 167.0087 0001230 109.5329 250.5796 15.08877411 45545,6917.766,95.435,540.482,538.78,0.0
52637.0,STARLINK-3961,PAYLOAD,2023-03-04 07:15:24,15.08868094,0.000118,53.2151,163.4392,329.1895,30.9028,0.0024062,0.00038244,0.0,0 STARLINK-3961,1 52637U 22052AR  23063.30237146  .00038244  00000-0  24062-2 0  9991,2 52637  53.2151 163.4392 0001180 329.1895  30.9028 15.08868094 45232,6917.795,95.436,540.476,538.843,0.0
52637.0,STARLINK-3961,PAYLOAD,2023-03-04 10:26:11,15.08844821,0.0001098,53.2152,162.8453,97.6213,262.4903,0.0021351,0.0003386,0.0,0 STARLINK-3961,1 52637U 22052AR  23063.43484985  .00033860  00000-0  21351-2 0  9997,2 52637  53.2152 162.8453 0001098  97.6213 262.4903 15.08844821 45688,6917.866,95.437,540.49,538.971,0.0
52637.0,STARLINK-3961,PAYLOAD,2023-03-04 13:36:57,15.08849003,0.0001084,53.2152,162.2504,88.1117,271.9999,0.0022845,0.00036266,0.0,0 STARLINK-3961,1 52637U 22052AR  23063.56733130  .00036266  00000-0  22845-2 0  9992,2 52637  53.2152 162.2504 0001084  88.1117 271.9999 15.08849003 45274,6917.853,95.437,540.468,538.968,0.0
52637.0,STARLINK-3961,PAYLOAD,2023-03-04 23:09:16,15.08833133,0.0001284,53.216,160.4678,98.849,261.2647,0.00072672,0.00011295,0.0,0 STARLINK-3961,1 52637U 22052AR  23063.96477545  .00011295  00000-0  72672-3 0  9990,2 52637  53.2160 160.4678 0001284  98.8490 261.2647 15.08833133 45335,6917.901,95.438,540.655,538.878,0.0
52637.0,STARLINK-3961,PAYLOAD,2023-03-05 23:00:03,15.08843527,0.0001109,53.2168,156.006,115.0794,245.0313,0.00061555,9.523e-05,0.0,0 STARLINK-3961,1 52637U 22052AR  23064.95837685  .00009523  00000-0  61555-3 0  9994,2 52637  53.2168 156.0060 0001109 115.0794 245.0313 15.08843527 45488,6917.87,95.437,540.502,538.967,0.0
